[{"OBJECT_NAME":"ONEWEB-0224","OBJECT_ID":"2021-045AD","EPOCH":"2026-04-16T17:05:17.047968","MEAN_MOTION":13.15547076,"ECCENTRICITY":0.0001661,"INCLINATION":87.894,"RA_OF_ASC_NODE":271.4918,"ARG_OF_PERICENTER":65.9891,"MEAN_ANOMALY":294.1413,"EPHEMERIS_TYPE":0,"CLASSIFICATION_TYPE":"U","NORAD_CAT_ID":48794,"ELEMENT_SET_NO":999,"REV_AT_EPOCH":23619,"BSTAR":-0.00017502000000000001,"MEAN_MOTION_DOT":-5.3e-07,"MEAN_MOTION_DDOT":0.0},{"OBJECT_NAME":"ONEWEB-0233","OBJECT_ID":"2021-045AE","EPOCH":"2026-04-16T11:43:22.656288","MEAN_MOTION":13.15548526,"ECCENTRICITY":0.0001972,"INCLINATION":87.8935,"RA_OF_ASC_NODE":271.545,"ARG_OF_PERICENTER":87.604,"MEAN_ANOMALY":272.5316,"EPHEMERIS_TYPE":0,"CLASSIFICATION_TYPE":"U","NORAD_CAT_ID":48795,"ELEMENT_SET_NO":999,"REV_AT_EPOCH":23618,"BSTAR":-0.00023331,"MEAN_MOTION_DOT":-7.5e-07,"MEAN_MOTION_DDOT":0.0},{"OBJECT_NAME":"ONEWEB-0190","OBJECT_ID":"2021-045AF","EPOCH":"2026-04-16T16:53:52.716768","MEAN_MOTION":13.15547516,"ECCENTRICITY":0.0002453,"INCLINATION":87.8938,"RA_OF_ASC_NODE":271.4631,"ARG_OF_PERICENTER":86.7853,"MEAN_ANOMALY":273.3558,"EPHEMERIS_TYPE":0,"CLASSIFICATION_TYPE":"U","NORAD_CAT_ID":48796,"ELEMENT_SET_NO":999,"REV_AT_EPOCH":23628,"BSTAR":-0.00037543,"MEAN_MOTION_DOT":-1.28e-06,"MEAN_MOTION_DDOT":0.0},{"OBJECT_NAME":"ONEWEB-0236","OBJECT_ID":"2021-045AG","EPOCH":"2026-04-16T17:18:58.609152","MEAN_MOTION":13.15547229,"ECCENTRICITY":0.0001642,"INCLINATION":87.8934,"RA_OF_ASC_NODE":271.4706,"ARG_OF_PERICENTER":95.8651,"MEAN_ANOMALY":264.2666,"EPHEMERIS_TYPE":0,"CLASSIFICATION_TYPE":"U","NORAD_CAT_ID":48797,"ELEMENT_SET_NO":999,"REV_AT_EPOCH":23617,"BSTAR":-0.00020551,"MEAN_MOTION_DOT":-6.5e-07,"MEAN_MOTION_DDOT":0.0},{"OBJECT_NAME":"ONEWEB-0248","OBJECT_ID":"2021-045AH","EPOCH":"2026-04-16T17:37:14.677824","MEAN_MOTION":13.15548434,"ECCENTRICITY":0.0002,"INCLINATION":87.8945,"RA_OF_ASC_NODE":271.4454,"ARG_OF_PERICENTER":82.2222,"MEAN_ANOMALY":277.9136,"EPHEMERIS_TYPE":0,"CLASSIFICATION_TYPE":"U","NORAD_CAT_ID":48798,"ELEMENT_SET_NO":999,"REV_AT_EPOCH":23633,"BSTAR":6.4866e-05,"MEAN_MOTION_DOT":3.7e-07,"MEAN_MOTION_DDOT":0.0},{"OBJECT_NAME":"ONEWEB-0225","OBJECT_ID":"2021-045AJ","EPOCH":"2026-04-16T18:09:10.233216","MEAN_MOTION":13.15548715,"ECCENTRICITY":0.0002315,"INCLINATION":87.8939,"RA_OF_ASC_NODE":271.4537,"ARG_OF_PERICENTER":87.1694,"MEAN_ANOMALY":272.9701,"EPHEMERIS_TYPE":0,"CLASSIFICATION_TYPE":"U","NORAD_CAT_ID":48799,"ELEMENT_SET_NO":999,"REV_AT_EPOCH":23634,"BSTAR":0.00054094,"MEAN_MOTION_DOT":2.16e-06,"MEAN_MOTION_DDOT":0.0},{"OBJECT_NAME":"ONEWEB-0215","OBJECT_ID":"2021-045AK","EPOCH":"2026-04-16T17:25:49.739232","MEAN_MOTION":13.15547511,"ECCENTRICITY":0.0002331,"INCLINATION":87.8946,"RA_OF_ASC_NODE":271.4365,"ARG_OF_PERICENTER":82.522,"MEAN_ANOMALY":277.6176,"EPHEMERIS_TYPE":0,"CLASSIFICATION_TYPE":"U","NORAD_CAT_ID":48800,"ELEMENT_SET_NO":999,"REV_AT_EPOCH":23621,"BSTAR":-9.633600000000001e-05,"MEAN_MOTION_DOT":-2.3e-07,"MEAN_MOTION_DDOT":0.0},{"OBJECT_NAME":"ONEWEB-0216","OBJECT_ID":"2021-045AL","EPOCH":"2026-04-16T12:10:57.294048","MEAN_MOTION":13.15547572,"ECCENTRICITY":0.0001803,"INCLINATION":87.8943,"RA_OF_ASC_NODE":271.4972,"ARG_OF_PERICENTER":97.6173,"MEAN_ANOMALY":262.5162,"EPHEMERIS_TYPE":0,"CLASSIFICATION_TYPE":"U","NORAD_CAT_ID":48801,"ELEMENT_SET_NO":999,"REV_AT_EPOCH":23619,"BSTAR":0.00023531,"MEAN_MOTION_DOT":1.01e-06,"MEAN_MOTION_DDOT":0.0},{"OBJECT_NAME":"ONEWEB-0239","OBJECT_ID":"2021-045AM","EPOCH":"2026-04-16T17:46:21.634752","MEAN_MOTION":13.15548237,"ECCENTRICITY":0.0002142,"INCLINATION":87.8936,"RA_OF_ASC_NODE":271.4626,"ARG_OF_PERICENTER":74.7276,"MEAN_ANOMALY":285.4091,"EPHEMERIS_TYPE":0,"CLASSIFICATION_TYPE":"U","NORAD_CAT_ID":48802,"ELEMENT_SET_NO":999,"REV_AT_EPOCH":23626,"BSTAR":0.00027338000000000004,"MEAN_MOTION_DOT":1.16e-06,"MEAN_MOTION_DDOT":0.0},{"OBJECT_NAME":"ONEWEB-0249","OBJECT_ID":"2021-060A","EPOCH":"2026-04-16T15:32:11.192064","MEAN_MOTION":13.16594124,"ECCENTRICITY":0.0001809,"INCLINATION":87.9062,"RA_OF_ASC_NODE":241.0028,"ARG_OF_PERICENTER":97.4999,"MEAN_ANOMALY":262.6338,"EPHEMERIS_TYPE":0,"CLASSIFICATION_TYPE":"U","NORAD_CAT_ID":48967,"ELEMENT_SET_NO":999,"REV_AT_EPOCH":23151,"BSTAR":5.7863e-06,"MEAN_MOTION_DOT":1.5e-07,"MEAN_MOTION_DDOT":0.0},{"OBJECT_NAME":"ONEWEB-0250","OBJECT_ID":"2021-060B","EPOCH":"2026-04-16T10:10:22.506240","MEAN_MOTION":13.25830063,"ECCENTRICITY":0.0001248,"INCLINATION":87.9067,"RA_OF_ASC_NODE":239.0039,"ARG_OF_PERICENTER":69.5451,"MEAN_ANOMALY":290.5819,"EPHEMERIS_TYPE":0,"CLASSIFICATION_TYPE":"U","NORAD_CAT_ID":48968,"ELEMENT_SET_NO":999,"REV_AT_EPOCH":23203,"BSTAR":-5.384400000000001e-05,"MEAN_MOTION_DOT":-1e-07,"MEAN_MOTION_DDOT":0.0},{"OBJECT_NAME":"ONEWEB-0252","OBJECT_ID":"2021-060D","EPOCH":"2026-04-16T14:27:12.883680","MEAN_MOTION":13.16594185,"ECCENTRICITY":0.0002048,"INCLINATION":87.9065,"RA_OF_ASC_NODE":241.0038,"ARG_OF_PERICENTER":105.2456,"MEAN_ANOMALY":254.8902,"EPHEMERIS_TYPE":0,"CLASSIFICATION_TYPE":"U","NORAD_CAT_ID":48970,"ELEMENT_SET_NO":999,"REV_AT_EPOCH":23155,"BSTAR":0.00025195,"MEAN_MOTION_DOT":1.09e-06,"MEAN_MOTION_DDOT":0.0},{"OBJECT_NAME":"ONEWEB-0253","OBJECT_ID":"2021-060E","EPOCH":"2026-04-16T16:00:40.591008","MEAN_MOTION":13.16593875,"ECCENTRICITY":0.0001845,"INCLINATION":87.9064,"RA_OF_ASC_NODE":240.9968,"ARG_OF_PERICENTER":97.9741,"MEAN_ANOMALY":262.16,"EPHEMERIS_TYPE":0,"CLASSIFICATION_TYPE":"U","NORAD_CAT_ID":48971,"ELEMENT_SET_NO":999,"REV_AT_EPOCH":23149,"BSTAR":0.00026859,"MEAN_MOTION_DOT":1.16e-06,"MEAN_MOTION_DDOT":0.0},{"OBJECT_NAME":"ONEWEB-0254","OBJECT_ID":"2021-060F","EPOCH":"2026-04-16T14:24:56.382048","MEAN_MOTION":13.16594068,"ECCENTRICITY":0.0001927,"INCLINATION":87.9065,"RA_OF_ASC_NODE":241.006,"ARG_OF_PERICENTER":90.7468,"MEAN_ANOMALY":269.3884,"EPHEMERIS_TYPE":0,"CLASSIFICATION_TYPE":"U","NORAD_CAT_ID":48972,"ELEMENT_SET_NO":999,"REV_AT_EPOCH":23148,"BSTAR":0.0001872,"MEAN_MOTION_DOT":8.4e-07,"MEAN_MOTION_DDOT":0.0},{"OBJECT_NAME":"ONEWEB-0255","OBJECT_ID":"2021-060G","EPOCH":"2026-04-16T15:19:39.079200","MEAN_MOTION":13.16595427,"ECCENTRICITY":0.0001943,"INCLINATION":87.9062,"RA_OF_ASC_NODE":241.0064,"ARG_OF_PERICENTER":95.3977,"MEAN_ANOMALY":264.7376,"EPHEMERIS_TYPE":0,"CLASSIFICATION_TYPE":"U","NORAD_CAT_ID":48973,"ELEMENT_SET_NO":999,"REV_AT_EPOCH":23156,"BSTAR":6.6058e-05,"MEAN_MOTION_DOT":3.8e-07,"MEAN_MOTION_DDOT":0.0},{"OBJECT_NAME":"ONEWEB-0256","OBJECT_ID":"2021-060H","EPOCH":"2026-04-16T19:36:07.354656","MEAN_MOTION":13.16592238,"ECCENTRICITY":0.0001837,"INCLINATION":87.9064,"RA_OF_ASC_NODE":240.9789,"ARG_OF_PERICENTER":104.2189,"MEAN_ANOMALY":255.9146,"EPHEMERIS_TYPE":0,"CLASSIFICATION_TYPE":"U","NORAD_CAT_ID":48974,"ELEMENT_SET_NO":999,"REV_AT_EPOCH":23155,"BSTAR":9.1952e-05,"MEAN_MOTION_DOT":4.8e-07,"MEAN_MOTION_DDOT":0.0},{"OBJECT_NAME":"ONEWEB-0257","OBJECT_ID":"2021-060J","EPOCH":"2026-04-16T14:54:34.435296","MEAN_MOTION":13.16593903,"ECCENTRICITY":0.0001989,"INCLINATION":87.9063,"RA_OF_ASC_NODE":241.0009,"ARG_OF_PERICENTER":99.1496,"MEAN_ANOMALY":260.986,"EPHEMERIS_TYPE":0,"CLASSIFICATION_TYPE":"U","NORAD_CAT_ID":48975,"ELEMENT_SET_NO":999,"REV_AT_EPOCH":23148,"BSTAR":1.3524000000000001e-05,"MEAN_MOTION_DOT":1.8e-07,"MEAN_MOTION_DDOT":0.0},{"OBJECT_NAME":"ONEWEB-0258","OBJECT_ID":"2021-060K","EPOCH":"2026-04-16T14:56:50.409024","MEAN_MOTION":13.16593993,"ECCENTRICITY":0.0001816,"INCLINATION":87.9066,"RA_OF_ASC_NODE":241.0118,"ARG_OF_PERICENTER":98.7497,"MEAN_ANOMALY":261.3839,"EPHEMERIS_TYPE":0,"CLASSIFICATION_TYPE":"U","NORAD_CAT_ID":48976,"ELEMENT_SET_NO":999,"REV_AT_EPOCH":23149,"BSTAR":-4.7856000000000004e-05,"MEAN_MOTION_DOT":-5e-08,"MEAN_MOTION_DDOT":0.0},{"OBJECT_NAME":"ONEWEB-0259","OBJECT_ID":"2021-060L","EPOCH":"2026-04-16T18:26:36.307392","MEAN_MOTION":13.1659581,"ECCENTRICITY":0.0001797,"INCLINATION":87.9069,"RA_OF_ASC_NODE":240.9828,"ARG_OF_PERICENTER":95.5738,"MEAN_ANOMALY":264.5598,"EPHEMERIS_TYPE":0,"CLASSIFICATION_TYPE":"U","NORAD_CAT_ID":48977,"ELEMENT_SET_NO":999,"REV_AT_EPOCH":23154,"BSTAR":-0.00020957000000000001,"MEAN_MOTION_DOT":-6.7e-07,"MEAN_MOTION_DDOT":0.0},{"OBJECT_NAME":"ONEWEB-0260","OBJECT_ID":"2021-060M","EPOCH":"2026-04-16T18:14:03.268320","MEAN_MOTION":13.16594323,"ECCENTRICITY":0.0002086,"INCLINATION":87.9065,"RA_OF_ASC_NODE":240.9899,"ARG_OF_PERICENTER":110.7099,"MEAN_ANOMALY":249.4256,"EPHEMERIS_TYPE":0,"CLASSIFICATION_TYPE":"U","NORAD_CAT_ID":48978,"ELEMENT_SET_NO":999,"REV_AT_EPOCH":23152,"BSTAR":4.3795e-05,"MEAN_MOTION_DOT":3e-07,"MEAN_MOTION_DDOT":0.0},{"OBJECT_NAME":"ONEWEB-0261","OBJECT_ID":"2021-060N","EPOCH":"2026-04-16T10:12:59.910624","MEAN_MOTION":13.1659525,"ECCENTRICITY":0.0002216,"INCLINATION":87.9058,"RA_OF_ASC_NODE":241.0544,"ARG_OF_PERICENTER":97.1752,"MEAN_ANOMALY":262.9631,"EPHEMERIS_TYPE":0,"CLASSIFICATION_TYPE":"U","NORAD_CAT_ID":48979,"ELEMENT_SET_NO":999,"REV_AT_EPOCH":23153,"BSTAR":2.2074e-05,"MEAN_MOTION_DOT":2.1e-07,"MEAN_MOTION_DDOT":0.0},{"OBJECT_NAME":"ONEWEB-0262","OBJECT_ID":"2021-060P","EPOCH":"2026-04-16T15:12:48.496032","MEAN_MOTION":13.16593949,"ECCENTRICITY":0.0001742,"INCLINATION":87.9062,"RA_OF_ASC_NODE":240.9972,"ARG_OF_PERICENTER":91.1272,"MEAN_ANOMALY":269.0058,"EPHEMERIS_TYPE":0,"CLASSIFICATION_TYPE":"U","NORAD_CAT_ID":48980,"ELEMENT_SET_NO":999,"REV_AT_EPOCH":23152,"BSTAR":-0.00023434,"MEAN_MOTION_DOT":-7.7e-07,"MEAN_MOTION_DDOT":0.0},{"OBJECT_NAME":"ONEWEB-0263","OBJECT_ID":"2021-060Q","EPOCH":"2026-04-16T15:58:23.855232","MEAN_MOTION":13.16594607,"ECCENTRICITY":0.0002078,"INCLINATION":87.9065,"RA_OF_ASC_NODE":241.0022,"ARG_OF_PERICENTER":93.4116,"MEAN_ANOMALY":266.7253,"EPHEMERIS_TYPE":0,"CLASSIFICATION_TYPE":"U","NORAD_CAT_ID":48981,"ELEMENT_SET_NO":999,"REV_AT_EPOCH":23149,"BSTAR":8.463600000000001e-05,"MEAN_MOTION_DOT":4.5e-07,"MEAN_MOTION_DDOT":0.0}]